{
  "type": "FeatureCollection",
  "features": [
    {"type":"Feature","properties":{"zip_code":"92096-0001","city":"San Marcos","name_master":"CALIFORNIA STATE UNIVERSITY-SAN MARCOS","name":"CALIFORNIA STATE UNIVERSITY-SAN MARCOS","state":"CA","shortname":"CSUSM","naics":"611310","objectid":"38","globalid":"{2C4CFD91-21A9-4171-9076-1CCFE39BE5BB}","id":"8020","naicstitle":"Colleges, Universities, and Professional Schools","iped_id":"366711","address":"333 S Twin Oaks Valley Rd"},"geometry":{"type":"Point","coordinates":[-117.158625882742,33.12798619106]}},{"type":"Feature","properties":{"zip_code":"92127","city":"San Diego","name_master":"NATIONAL UNIVERSITY","name":"NATIONAL UNIVERSITY-RANCHO BERNARDO","state":"CA","shortname":"National","naics":"611310","objectid":"17","globalid":"{2B9E640B-47F6-4488-9C04-710EB86A10D8}","id":"8023","naicstitle":"Colleges, Universities, and Professional Schools","iped_id":"119605","address":"16875 West Bernardo Drive #150"},"geometry":{"type":"Point","coordinates":[-117.080226946787,33.01927260162]}},{"type":"Feature","properties":{"zip_code":"92106","city":"San Diego","name_master":"HIGH TECH HIGH GRADUATE SCHOOL OF EDUCATION","name":"HIGH TECH HIGH GRADUATE SCHOOL OF EDUCATION","state":"CA","shortname":null,"naics":"611310","objectid":"53","globalid":"{4FDC6D72-7ADB-4FD8-8509-F7B1D8B716BF}","id":"8108","naicstitle":"Colleges, Universities, and Professional Schools","iped_id":"485403","address":"2861 Womble Road"},"geometry":{"type":"Point","coordinates":[-117.217496939863,32.734927760992]}},{"type":"Feature","properties":{"zip_code":"91942-5055","city":"La Mesa","name_master":"CALIFORNIA HAIR DESIGN ACADEMY","name":"CALIFORNIA HAIR DESIGN ACADEMY","state":"CA","shortname":"California Hair","naics":"611511","objectid":"9","globalid":"{07BF4A2B-AB12-4FC0-88E1-42CA7E02EB9B}","id":"8054","naicstitle":"Cosmetology and Barber Schools","iped_id":"111054","address":"8011 University Avenue  Suite A-2"},"geometry":{"type":"Point","coordinates":[-117.024706580345,32.765143967785]}},{"type":"Feature","properties":{"zip_code":"92113","city":null,"name_master":"SAN DIEGO CONTINUING EDUCATION","name":"SAN DIEGO CONTINUING EDUCATION","state":"CA","shortname":"SDCE","naics":"611210","objectid":"78","globalid":"{F031FAF0-C5B3-4E63-9BC3-6B18CC013DE3}","id":"8085","naicstitle":"Junior Colleges","iped_id":"113953","address":"443 Ocean View Boulevard"},"geometry":{"type":"Point","coordinates":[-117.102107578404,32.699218740002]}},{"type":"Feature","properties":{"zip_code":"92064","city":"Poway","name_master":"BELLUS ACADEMY","name":"BELLUS ACADEMY-POWAY","state":"CA","shortname":"Bellus Academy","naics":"611511","objectid":"46","globalid":"{7B95F60B-9454-47C6-A222-AC9F83FF7D49}","id":"8049","naicstitle":"Cosmetology and Barber Schools","iped_id":"377722","address":"13266 Poway Rd"},"geometry":{"type":"Point","coordinates":[-117.042615383415,32.957219380963]}},{"type":"Feature","properties":{"zip_code":"92114-3618","city":"San Diego","name_master":"RIGGINS URBAN BARBER COLLEGE","name":"RIGGINS URBAN BARBER COLLEGE","state":"CA","shortname":null,"naics":"611511","objectid":"62","globalid":"{A752BD3B-4F72-4336-9BA9-4B3C898DA26B}","id":"8115","naicstitle":"Cosmetology and Barber Schools","iped_id":"496663","address":"220 Euclid Avenue"},"geometry":{"type":"Point","coordinates":[-117.086145870578,32.706391742322]}},{"type":"Feature","properties":{"zip_code":"92101","city":"San Diego","name_master":"PAUL MITCHELL THE SCHOOL-SAN DIEGO","name":"PAUL MITCHELL THE SCHOOL-SAN DIEGO","state":"CA","shortname":"Paul Mitchell","naics":"611511","objectid":"41","globalid":"{94C04A41-0262-4F91-9C38-01901F023449}","id":"8068","naicstitle":"Cosmetology and Barber Schools","iped_id":"449968","address":"410 A Street"},"geometry":{"type":"Point","coordinates":[-117.16079185324,32.7190103146]}},{"type":"Feature","properties":{"zip_code":"92069-1487","city":"San Marcos","name_master":"PALOMAR COLLEGE","name":"PALOMAR COLLEGE","state":"CA","shortname":"Palomar","naics":"611210","objectid":"24","globalid":"{3FECF64A-B7EC-4635-8ACD-DA5F8E2B4421}","id":"8011","naicstitle":"Junior Colleges","iped_id":"120971","address":"1140 W. Mission"},"geometry":{"type":"Point","coordinates":[-117.182816565064,33.151076091065]}},{"type":"Feature","properties":{"zip_code":"92106-2899","city":"San Diego","name_master":"POINT LOMA NAZARENE UNIVERSITY","name":"POINT LOMA NAZARENE UNIVERSITY-POINT LOMA","state":"CA","shortname":"Pt Loma Nazarene","naics":"611310","objectid":"26","globalid":"{13092C9C-3BC7-4B2B-A1FF-F099BA23EF0A}","id":"8002","naicstitle":"Colleges, Universities, and Professional Schools","iped_id":"121309","address":"3900 Lomaland Dr"},"geometry":{"type":"Point","coordinates":[-117.249179612372,32.719618778332]}},{"type":"Feature","properties":{"zip_code":"92108-1630","city":"San Diego","name_master":"ASSOCIATED TECHNICAL COLLEGE","name":"ASSOCIATED TECHNICAL COLLEGE","state":"CA","shortname":"Associated Tech","naics":"611519","objectid":"6","globalid":"{D33C0236-D95E-4B22-8E78-6018CF1BE8D7}","id":"8051","naicstitle":"Other Technical and Trade Schools","iped_id":"109730","address":"2650 Camino Del Rio North  Ste. 100"},"geometry":{"type":"Point","coordinates":[-117.158007634612,32.715575440555]}},{"type":"Feature","properties":{"zip_code":"92123","city":"San Diego","name_master":"NORTHCENTRAL UNIVERSITY","name":"NORTHCENTRAL UNIVERSITY","state":"CA","shortname":null,"naics":"611310","objectid":"58","globalid":"{58EBA812-4FE3-4D1B-B24A-474880DDB53B}","id":"8112","naicstitle":"Colleges, Universities, and Professional Schools","iped_id":"444130","address":"9833 Lightwave Ave"},"geometry":{"type":"Point","coordinates":[-117.127247773611,32.827790582323]}},{"type":"Feature","properties":{"zip_code":"91977","city":"Spring Valley","name_master":"SAN DIEGO CHRISTIAN COLLEGE","name":"SAN DIEGO CHRISTIAN COLLEGE","state":"CA","shortname":"San Diego Christian","naics":"611310","objectid":"63","globalid":"{A9DEE4EB-E147-4EBA-809F-0A5190148FCA}","id":"8030","naicstitle":"Colleges, Universities, and Professional Schools","iped_id":"112084","address":"9400 Campo Rd"},"geometry":{"type":"Point","coordinates":[-116.994198895135,32.749993784254]}},{"type":"Feature","properties":{"zip_code":"92110","city":"San Diego","name_master":"SOUTHERN STATES UNIVERSITY","name":"SOUTHERN STATES UNIVERSITY","state":"CA","shortname":null,"naics":"611310","objectid":"66","globalid":"{0DA1E2E5-FD70-4FF9-AA34-06D6118D40C5}","id":"8118","naicstitle":"Colleges, Universities, and Professional Schools","iped_id":"490063","address":"1094 Cuhady Place  #120"},"geometry":{"type":"Point","coordinates":[-117.201191024933,32.767506420807]}},{"type":"Feature","properties":{"zip_code":"92020-1799","city":"El Cajon","name_master":"GROSSMONT COLLEGE","name":"GROSSMONT COLLEGE","state":"CA","shortname":"Grossmont","naics":"611210","objectid":"15","globalid":"{0C6FA394-6DBE-48B1-AB6E-55614931E45F}","id":"8008","naicstitle":"Junior Colleges","iped_id":"115296","address":"8800 Grossmont College Dr"},"geometry":{"type":"Point","coordinates":[-117.006392289052,32.816503774013]}},{"type":"Feature","properties":{"zip_code":"92110","city":"San Diego","name_master":"FRANCISCAN SCHOOL OF THEOLOGY","name":"FRANCISCAN SCHOOL OF THEOLOGY","state":"CA","shortname":"FST","naics":"813110","objectid":"52","globalid":"{5CC8A31D-A983-4238-9D2A-0AAF2032E810}","id":"8107","naicstitle":"Religious Organizations","iped_id":"114734","address":"5998 Alcala Park"},"geometry":{"type":"Point","coordinates":[-117.19164238973,32.771677869071]}},{"type":"Feature","properties":{"zip_code":"92101-2607","city":"San Diego","name_master":"ICOHS COLLEGE","name":"ICOHS COLLEGE","state":"CA","shortname":"ICOHS","naics":"611310","objectid":"54","globalid":"{71E0898F-7A2E-4F09-97C1-E1C4C05B7A1E}","id":"8109","naicstitle":"Colleges, Universities, and Professional Schools","iped_id":"491659","address":"1770 4th Avenue"},"geometry":{"type":"Point","coordinates":[-117.161448903099,32.723884773178]}},{"type":"Feature","properties":{"zip_code":"92101","city":"San Diego","name_master":"NEWSCHOOL OF ARCHITECTURE AND DESIGN","name":"NEWSCHOOL OF ARCHITECTURE AND DESIGN","state":"CA","shortname":"NewSchool","naics":"611310","objectid":"22","globalid":"{977648AC-38AD-4DB9-9526-24F118D08E17}","id":"8036","naicstitle":"Colleges, Universities, and Professional Schools","iped_id":"119775","address":"1249 F St"},"geometry":{"type":"Point","coordinates":[-117.153481083465,32.713511219268]}},{"type":"Feature","properties":{"zip_code":"92101-7903","city":"San Diego","name_master":"THE CHICAGO SCHOOL OF PROFESSIONAL PSYCHOLOGY AT SAN DIEGO","name":"THE CHICAGO SCHOOL OF PROFESSIONAL PSYCHOLOGY AT SAN DIEGO","state":"CA","shortname":null,"naics":"611310","objectid":"67","globalid":"{F6623132-3866-41E0-A3D7-DCF0287106F3}","id":"8119","naicstitle":"Colleges, Universities, and Professional Schools","iped_id":"491190","address":"401 W. A Street at 1 Columbia Place"},"geometry":{"type":"Point","coordinates":[-117.167121822521,32.717968364742]}},{"type":"Feature","properties":{"zip_code":"92106","city":"San Diego","name_master":"POINT LOMA NAZARENE UNIVERSITY","name":"POINT LOMA NAZARENE UNIVERSITY-LIBERTY STATION","state":"CA","shortname":null,"naics":"611310","objectid":"76","globalid":"{40B027D3-F6C0-45B1-ACFC-2999BF7ED58E}","id":"8128","naicstitle":"Colleges, Universities, and Professional Schools","iped_id":"121309","address":"2600 Laning Road"},"geometry":{"type":"Point","coordinates":[-117.217314885208,32.729305766403]}},{"type":"Feature","properties":{"zip_code":"92131","city":"San Diego","name_master":"ALLIANT INTERNATIONAL UNIVERSITY","name":"ALLIANT INTERNATIONAL UNIVERSITY","state":"CA","shortname":"Alliant","naics":"611310","objectid":"7","globalid":"{98C80F2F-04A0-47C1-B514-C2F7D7E54859}","id":"8004","naicstitle":"Colleges, Universities, and Professional Schools","iped_id":"110468","address":"10455 Pomerado Road"},"geometry":{"type":"Point","coordinates":[-117.096225128919,32.895764092485]}},{"type":"Feature","properties":{"zip_code":"92110-2492","city":"San Diego","name_master":"UNIVERSITY OF SAN DIEGO","name":"UNIVERSITY OF SAN DIEGO","state":"CA","shortname":"USD","naics":"611310","objectid":"31","globalid":"{76F7CD26-191C-4F49-A41E-308B40D7C11D}","id":"8003","naicstitle":"Colleges, Universities, and Professional Schools","iped_id":"122436","address":"5998 Alcala Park"},"geometry":{"type":"Point","coordinates":[-117.191713746808,32.771617577665]}},{"type":"Feature","properties":{"zip_code":"92101-4210","city":"San Diego","name_master":"ASSOCIATED BARBER COLLEGE OF SAN DIEGO","name":"ASSOCIATED BARBER COLLEGE OF SAN DIEGO","state":"CA","shortname":null,"naics":"611511","objectid":"43","globalid":"{1F020780-7B56-45AF-973A-4E29FB95A053}","id":"8100","naicstitle":"Cosmetology and Barber Schools","iped_id":"485494","address":"1333 5th Avenue"},"geometry":{"type":"Point","coordinates":[-117.159730863471,32.719320742398]}},{"type":"Feature","properties":{"zip_code":"92115-4730","city":"San Diego","name_master":"CALIFORNIA BARBER AND BEAUTY COLLEGE","name":"CALIFORNIA BARBER AND BEAUTY COLLEGE","state":"CA","shortname":null,"naics":"611511","objectid":"47","globalid":"{70ABC221-6289-461E-A8D3-B5953AF04A30}","id":"8102","naicstitle":"Cosmetology and Barber Schools","iped_id":"486497","address":"5315 El Cajon Boulevard"},"geometry":{"type":"Point","coordinates":[-117.081376906516,32.757247773288]}},{"type":"Feature","properties":{"zip_code":"92037-1005","city":"La Jolla","name_master":"SANFORD BURNHAM PREBYS MEDICAL DISCOVERY INSTITUTE","name":"SANFORD BURNHAM PREBYS MEDICAL DISCOVERY INSTITUTE","state":"CA","shortname":null,"naics":"541714","objectid":"65","globalid":"{29CF8F0C-3946-4B71-A2DA-ABF21DEB0691}","id":"8117","naicstitle":"Research and Development in Biotechnology (except Nanobiotechnology)","iped_id":"481535","address":"10901 North Torrey Pines Road"},"geometry":{"type":"Point","coordinates":[-117.241923917416,32.901153785438]}},{"type":"Feature","properties":{"zip_code":"92108-4407","city":"San Diego","name_master":"PACIFIC COLLEGE OF ORIENTAL MEDICINE","name":"PACIFIC COLLEGE OF ORIENTAL MEDICINE","state":"CA","shortname":"Pacific","naics":"611310","objectid":"39","globalid":"{5CC0D5EF-12B0-4A5E-9B36-305C0493FFC9}","id":"8037","naicstitle":"Colleges, Universities, and Professional Schools","iped_id":"378576","address":"7445 Mission Valley Rd Ste 105"},"geometry":{"type":"Point","coordinates":[-117.160354370571,32.778305029787]}},{"type":"Feature","properties":{"zip_code":"92011","city":"Carlsbad","name_master":"MIRACOSTA COLLEGE","name":"MIRACOSTA COLLEGE-TECHNOLOGY CAREER INSTITUTE","state":"CA","shortname":null,"naics":"611210","objectid":"73","globalid":"{77D7B3B0-7ECD-4D6C-9BEC-0AB6D1B03713}","id":"8125","naicstitle":"Junior Colleges","iped_id":"118912","address":"2075 Las Palmas Drive"},"geometry":{"type":"Point","coordinates":[-117.276880918377,33.117040789774]}},{"type":"Feature","properties":{"zip_code":"92078","city":"San Marcos","name_master":"PALOMAR INSTITUTE OF COSMETOLOGY","name":"PALOMAR INSTITUTE OF COSMETOLOGY","state":"CA","shortname":"Palomar Cosmetology","naics":"611511","objectid":"37","globalid":"{9D161643-617E-4C81-B53C-EAE6D7B55F4A}","id":"8067","naicstitle":"Cosmetology and Barber Schools","iped_id":"365125","address":"355 Via Vera Cruz #3"},"geometry":{"type":"Point","coordinates":[-117.188276797766,33.136553328331]}},{"type":"Feature","properties":{"zip_code":"92108","city":"San Diego","name_master":"AZUSA PACIFIC UNIVERSITY","name":"AZUSA PACIFIC UNIVERSITY","state":"CA","shortname":"Azusa Pacific","naics":"611310","objectid":"1","globalid":"{BED6FD60-2C26-4196-8795-511B37E5C788}","id":"8076","naicstitle":"Colleges, Universities, and Professional Schools","iped_id":"109785","address":"5353 Mission Center Road, Suite 300"},"geometry":{"type":"Point","coordinates":[-117.154556625537,32.771794481853]}},{"type":"Feature","properties":{"zip_code":"92126-2999","city":"San Diego","name_master":"SAN DIEGO MIRAMAR COLLEGE","name":"SAN DIEGO MIRAMAR COLLEGE","state":"CA","shortname":"Miramar","naics":"611210","objectid":"29","globalid":"{3EE15724-4440-4CAD-89E3-90F172AE9293}","id":"8007","naicstitle":"Junior Colleges","iped_id":"122384","address":"10440 Black Mountain Rd"},"geometry":{"type":"Point","coordinates":[-117.119375144221,32.907258443823]}},{"type":"Feature","properties":{"zip_code":"92123","city":"San Diego","name_master":"POINT LOMA NAZARENE UNIVERSITY","name":"POINT LOMA NAZARENE UNIVERSITY-BALBOA PARK","state":"CA","shortname":null,"naics":"611310","objectid":"77","globalid":"{9F7AB80C-3E4F-4795-BCD1-AA8A8930B276}","id":"8129","naicstitle":"Colleges, Universities, and Professional Schools","iped_id":"121309","address":"9055 Balboa Avenue"},"geometry":{"type":"Point","coordinates":[-117.133233646882,32.821770254837]}},{"type":"Feature","properties":{"zip_code":"91950-6610","city":"National City","name_master":"CALIFORNIA INSTITUTE OF ARTS & TECHNOLOGY","name":"CALIFORNIA INSTITUTE OF ARTS & TECHNOLOGY-NATIONAL CITY","state":"CA","shortname":null,"naics":"611310","objectid":"49","globalid":"{C28D496B-EABB-4FA1-B457-74C1B6F04B31}","id":"8104","naicstitle":"Colleges, Universities, and Professional Schools","iped_id":"496186","address":"401 Mile of Cars Way Suite 100"},"geometry":{"type":"Point","coordinates":[-117.106046856629,32.661661751944]}},{"type":"Feature","properties":{"zip_code":"92069","city":"San Marcos","name_master":"UNIVERSITY OF SAINT KATHERINE","name":"UNIVERSITY OF SAINT KATHERINE","state":"CA","shortname":null,"naics":"611310","objectid":"69","globalid":"{97493A06-11F9-46A3-925A-66314BFADC24}","id":"8121","naicstitle":"Colleges, Universities, and Professional Schools","iped_id":"488785","address":"277 Rancheros Drive, Suite 200"},"geometry":{"type":"Point","coordinates":[-117.160741528131,33.13835126146]}},{"type":"Feature","properties":{"zip_code":"92108","city":"San Diego","name_master":"NATIONAL UNIVERSITY","name":"NATIONAL UNIVERSITY-MISSION VALLEY","state":"CA","shortname":"National","naics":"611310","objectid":"3","globalid":"{2176FA04-E8FB-4032-A842-3250BEAE1079}","id":"8015","naicstitle":"Colleges, Universities, and Professional Schools","iped_id":"119605","address":"4149 Camino del Rio South"},"geometry":{"type":"Point","coordinates":[-117.105252423671,32.77763943307]}},{"type":"Feature","properties":{"zip_code":"92025","city":"Escondido","name_master":"HEALING HANDS SCHOOL OF HOLISTIC HEALTH","name":"HEALING HANDS SCHOOL OF HOLISTIC HEALTH","state":"CA","shortname":"Healing Hands","naics":"611519","objectid":"42","globalid":"{67E41B06-3444-4B19-96C9-2D7BE814D29B}","id":"8060","naicstitle":"Other Technical and Trade Schools","iped_id":"454795","address":"125 W Mission Ave Ste 212"},"geometry":{"type":"Point","coordinates":[-117.086220839574,33.129554282867]}},{"type":"Feature","properties":{"zip_code":"92064","city":"Poway","name_master":"POWAY ADULT SCHOOL","name":"POWAY ADULT SCHOOL","state":"CA","shortname":null,"naics":"611699","objectid":"61","globalid":"{8EA71715-2EE0-4845-BB41-92ED6B761F9D}","id":"8114","naicstitle":"All Other Miscellaneous Schools and Instruction","iped_id":"492315","address":"13626 Twin Peaks Road"},"geometry":{"type":"Point","coordinates":[-117.036028832624,32.978842088268]}},{"type":"Feature","properties":{"zip_code":"92108","city":"San Diego","name_master":"POINT LOMA NAZARENE UNIVERSITY","name":"POINT LOMA NAZARENE UNIVERSITY-MISSION VALLEY","state":"CA","shortname":null,"naics":"611310","objectid":"75","globalid":"{DCDCE7BC-9FD8-4E32-99CC-856F3F490FD0}","id":"8127","naicstitle":"Colleges, Universities, and Professional Schools","iped_id":"121309","address":"4007 Camino Del Rio South"},"geometry":{"type":"Point","coordinates":[-117.108159858534,32.777386763447]}},{"type":"Feature","properties":{"zip_code":"92025","city":"Escondido","name_master":"ESCONDIDO ADULT SCHOOL","name":"ESCONDIDO ADULT SCHOOL","state":"CA","shortname":null,"naics":"611699","objectid":"51","globalid":"{6BD8B9AA-9AD7-432B-B880-C053E4ED68A3}","id":"8106","naicstitle":"All Other Miscellaneous Schools and Instruction","iped_id":"492306","address":"220 W Crest Street"},"geometry":{"type":"Point","coordinates":[-117.088488896089,33.131202822631]}},{"type":"Feature","properties":{"zip_code":"92131","city":"San Diego","name_master":"NATIONAL UNIVERSITY","name":"NATIONAL UNIVERSITY-SCRIPPS RANCH","state":"CA","shortname":null,"naics":"611310","objectid":"74","globalid":"{2971C85C-FD9D-4DE8-AA30-9DE66B26ADD9}","id":"8126","naicstitle":"Colleges, Universities, and Professional Schools","iped_id":"119605","address":"9980 Carroll Canyon Rd"},"geometry":{"type":"Point","coordinates":[-117.112130879074,32.905184776091]}},{"type":"Feature","properties":{"zip_code":"92025","city":"Escondido","name_master":"JOHN PAUL THE GREAT CATHOLIC UNIVERSITY","name":"JOHN PAUL THE GREAT CATHOLIC UNIVERSITY","state":"CA","shortname":"JPCatholic","naics":"813110","objectid":"55","globalid":"{0FF86894-B03C-4C9F-ABDB-F36D52D94D0A}","id":"8110","naicstitle":"Religious Organizations","iped_id":"462354","address":"155 W. Grand Ave"},"geometry":{"type":"Point","coordinates":[-117.082403883676,33.120831809122]}},{"type":"Feature","properties":{"zip_code":"92115-1506","city":"San Diego","name_master":"NORTH-WEST COLLEGE-SAN DIEGO","name":"NORTH-WEST COLLEGE-SAN DIEGO","state":"CA","shortname":null,"naics":"611519","objectid":"57","globalid":"{24C6423D-7416-44F2-94BF-63FA50F13EFB}","id":"8111","naicstitle":"Other Technical and Trade Schools","iped_id":"494746","address":"6106 Arosa St"},"geometry":{"type":"Point","coordinates":[-117.066151575963,32.765597480193]}},{"type":"Feature","properties":{"zip_code":"92111-4998","city":"San Diego","name_master":"SAN DIEGO MESA COLLEGE","name":"SAN DIEGO MESA COLLEGE","state":"CA","shortname":"Mesa","naics":"611210","objectid":"28","globalid":"{922B5743-D20C-4E75-A3D2-05D0EA3094DF}","id":"8005","naicstitle":"Junior Colleges","iped_id":"122375","address":"7250 Mesa College Dr"},"geometry":{"type":"Point","coordinates":[-117.172025726824,32.803670430645]}},{"type":"Feature","properties":{"zip_code":"92108-3822","city":"San Diego","name_master":"CALIFORNIA INSTITUTE OF ARTS & TECHNOLOGY","name":"CALIFORNIA INSTITUTE OF ARTS & TECHNOLOGY","state":"CA","shortname":null,"naics":"611310","objectid":"48","globalid":"{8014A6C9-1034-4E40-B1DA-1403B50A886A}","id":"8103","naicstitle":"Colleges, Universities, and Professional Schools","iped_id":"490285","address":"2820 Camino Del Rio South Suite 100"},"geometry":{"type":"Point","coordinates":[-117.133575985443,32.771079177212]}},{"type":"Feature","properties":{"zip_code":"92101-7446","city":"San Diego","name_master":"SAN DIEGO GLOBAL KNOWLEDGE UNIVERSITY","name":"SAN DIEGO GLOBAL KNOWLEDGE UNIVERSITY","state":"CA","shortname":null,"naics":"611310","objectid":"64","globalid":"{1E793314-C67D-4988-B24D-DD9D3D8A36CF}","id":"8116","naicstitle":"Colleges, Universities, and Professional Schools","iped_id":"493512","address":"1095 K Street  Suite B"},"geometry":{"type":"Point","coordinates":[-117.154982301299,32.70835006644]}},{"type":"Feature","properties":{"zip_code":"91941","city":"La Mesa","name_master":"NATIONAL UNIVERSITY","name":"NATIONAL UNIVERSITY-LA MESA","state":"CA","shortname":"National","naics":"611310","objectid":"19","globalid":"{C2D73E22-1125-4B17-87E6-0221E4DFA297}","id":"8024","naicstitle":"Colleges, Universities, and Professional Schools","iped_id":"119605","address":"7787 Alvarado Road"},"geometry":{"type":"Point","coordinates":[-117.03191411006,32.772395820935]}},{"type":"Feature","properties":{"zip_code":"92108","city":"San Diego","name_master":"UNITED STATES UNIVERSITY","name":"UNITED STATES UNIVERSITY","state":"CA","shortname":"US University","naics":"611430","objectid":"5","globalid":"{498C61BE-03DD-4118-89EF-5CE30F4DE6A3}","id":"8044","naicstitle":"Professional and Management Development Training","iped_id":"447050","address":"404 Camino del Rio"},"geometry":{"type":"Point","coordinates":[-117.105918991873,32.66783720891]}},{"type":"Feature","properties":{"zip_code":"91910-7299","city":"Chula Vista","name_master":"SOUTHWESTERN COLLEGE","name":"SOUTHWESTERN COLLEGE","state":"CA","shortname":"Southwestern","naics":"611210","objectid":"32","globalid":"{362F0313-7250-49D9-9291-E87B83E4E268}","id":"8010","naicstitle":"Junior Colleges","iped_id":"123800","address":"900 Otay Lakes Rd."},"geometry":{"type":"Point","coordinates":[-116.998157546785,32.639947602879]}},{"type":"Feature","properties":{"zip_code":"92123","city":"San Diego","name_master":"UNIVERSITY OF PHOENIX-SAN DIEGO CAMPUS","name":"UNIVERSITY OF PHOENIX-SAN DIEGO CAMPUS","state":"CA","shortname":"Phoenix","naics":"611310","objectid":"4","globalid":"{C7925AD5-6E04-4EEC-84DA-263EA27B281D}","id":"8048","naicstitle":"Colleges, Universities, and Professional Schools","iped_id":"372222","address":"3890 Murphy Canyon Road, Suite 100"},"geometry":{"type":"Point","coordinates":[-117.116929870647,32.814307634168]}},{"type":"Feature","properties":{"zip_code":"91911","city":"Chula Vista","name_master":"BELLUS ACADEMY","name":"BELLUS ACADEMY-CHULA VISTA","state":"CA","shortname":"Bellus Academy","naics":"611511","objectid":"44","globalid":"{43BB794D-740D-4F54-88E7-F1E208E399B7}","id":"8101","naicstitle":"Cosmetology and Barber Schools","iped_id":"109934","address":"970 Broadway  Suite 110"},"geometry":{"type":"Point","coordinates":[-117.08373087008,32.614717766787]}},{"type":"Feature","properties":{"zip_code":"92115","city":"San Diego","name_master":"BETHEL SEMINARY SAN DIEGO","name":"BETHEL SEMINARY SAN DIEGO","state":"CA","shortname":"Bethel","naics":"611310","objectid":"36","globalid":"{BA1480D1-5B21-4C8F-AC46-AC88FEE4B6C3}","id":"8039","naicstitle":"Colleges, Universities, and Professional Schools","iped_id":"262022","address":"6116 Arosa St"},"geometry":{"type":"Point","coordinates":[-117.065976862572,32.765314481453]}},{"type":"Feature","properties":{"zip_code":"92021","city":"El Cajon","name_master":"BELLUS ACADEMY","name":"BELLUS ACADEMY-EL CAJON","state":"CA","shortname":"Bellus Academy","naics":"611511","objectid":"45","globalid":"{71B5D4E3-87A2-4728-93CC-DEB1B0A8A489}","id":"8063","naicstitle":"Cosmetology and Barber Schools","iped_id":"116563","address":"1073 E Main St"},"geometry":{"type":"Point","coordinates":[-116.945906869213,32.794092227292]}},{"type":"Feature","properties":{"zip_code":"92101-3046","city":"San Diego","name_master":"CALIFORNIA WESTERN SCHOOL OF LAW","name":"CALIFORNIA WESTERN SCHOOL OF LAW","state":"CA","shortname":"CalWestern","naics":"611310","objectid":"10","globalid":"{645C5C2E-5D27-4818-AACB-3867ECF14B17}","id":"8028","naicstitle":"Colleges, Universities, and Professional Schools","iped_id":"111391","address":"225 Cedar St"},"geometry":{"type":"Point","coordinates":[-117.161514172445,32.72211116848]}},{"type":"Feature","properties":{"zip_code":"92123","city":"San Diego","name_master":"NATIONAL UNIVERSITY","name":"NATIONAL UNIVERSITY-SPECTRUM","state":"CA","shortname":"National","naics":"611310","objectid":"18","globalid":"{979BA330-2D4A-4D58-BFEB-805737BF5A89}","id":"8025","naicstitle":"Colleges, Universities, and Professional Schools","iped_id":"119605","address":"9388 Lightwave Ave"},"geometry":{"type":"Point","coordinates":[-117.127542752827,32.829511774516]}},{"type":"Feature","properties":{"zip_code":"92115-3919","city":"San Diego","name_master":"PLATT COLLEGE-SAN DIEGO","name":"PLATT COLLEGE-SAN DIEGO","state":"CA","shortname":"Platt","naics":"611310","objectid":"25","globalid":"{D0492149-8F9A-400F-BE13-CD0B31910AC2}","id":"8038","naicstitle":"Colleges, Universities, and Professional Schools","iped_id":"121275","address":"6250 El Cajon Blvd"},"geometry":{"type":"Point","coordinates":[-117.063594702638,32.763656839095]}},{"type":"Feature","properties":{"zip_code":"92058-2321","city":"Oceanside","name_master":"UNITED EDUCATION INSTITUTE","name":"UNITED EDUCATION INSTITUTE-UEI COLLEGE-OCEANSIDE","state":"CA","shortname":null,"naics":"611430","objectid":"68","globalid":"{D452F265-3AD2-432F-ABE3-157B42907CE6}","id":"8120","naicstitle":"Professional and Management Development Training","iped_id":"468848","address":"2027 Mission Avenue"},"geometry":{"type":"Point","coordinates":[-117.361932000125,33.20416994599]}},{"type":"Feature","properties":{"zip_code":"92019","city":"El Cajon","name_master":"CUYAMACA COLLEGE","name":"CUYAMACA COLLEGE","state":"CA","shortname":"Cuyamaca","naics":"611210","objectid":"12","globalid":"{1D7BB0AD-8723-44A2-9535-3776A0D5198E}","id":"8009","naicstitle":"Junior Colleges","iped_id":"113218","address":"900 Rancho San Diego Pky"},"geometry":{"type":"Point","coordinates":[-116.942474671616,32.743127623602]}},{"type":"Feature","properties":{"zip_code":"92069","city":"San Marcos","name_master":"UNIVERSITY OF ST. AUGUSTINE FOR HEALTH SCIENCES","name":"UNIVERSITY OF ST. AUGUSTINE FOR HEALTH SCIENCES","state":"CA","shortname":"University of St. A*","naics":"611519","objectid":"70","globalid":"{D4126361-7469-4ECD-AF37-C591EDBA3A2C}","id":"8122","naicstitle":"Other Technical and Trade Schools","iped_id":"367954","address":"700 Windy Point Drive"},"geometry":{"type":"Point","coordinates":[-117.165950939762,33.1518398211]}},{"type":"Feature","properties":{"zip_code":"92019-1108","city":"El Cajon","name_master":"SOUTHERN CALIFORNIA SEMINARY","name":"SOUTHERN CALIFORNIA SEMINARY","state":"CA","shortname":"SoCal Seminary","naics":"813110","objectid":"16","globalid":"{E0AD48FC-1DC1-485D-84E4-9B01767341BD}","id":"8040","naicstitle":"Religious Organizations","iped_id":"117575","address":"2075 E. Madison Avenue"},"geometry":{"type":"Point","coordinates":[-116.905003471507,32.799194505289]}},{"type":"Feature","properties":{"zip_code":"91910","city":"Chula Vista","name_master":"NATIONAL UNIVERSITY","name":"NATIONAL UNIVERSITY-CHULA VISTA","state":"CA","shortname":"National","naics":"611310","objectid":"20","globalid":"{BF183D16-0833-4BE2-9F1B-2F653FF5A073}","id":"8027","naicstitle":"Colleges, Universities, and Professional Schools","iped_id":"119605","address":"660 Bay Boulevard"},"geometry":{"type":"Point","coordinates":[-117.095122194029,32.623140137118]}},{"type":"Feature","properties":{"zip_code":"92008","city":"Carlsbad","name_master":"GEMOLOGICAL INSTITUTE OF AMERICA","name":"GEMOLOGICAL INSTITUTE OF AMERICA","state":"CA","shortname":"Gemological Inst","naics":"611699","objectid":"14","globalid":"{297F7A1A-D4F2-4026-BEAF-A60690A72D39}","id":"8058","naicstitle":"All Other Miscellaneous Schools and Instruction","iped_id":"114947","address":"5345 Armada Dr"},"geometry":{"type":"Point","coordinates":[-117.318741635079,33.132423503718]}},{"type":"Feature","properties":{"zip_code":"92182-0001","city":"San Diego","name_master":"SAN DIEGO STATE UNIVERSITY","name":"SAN DIEGO STATE UNIVERSITY","state":"CA","shortname":"SDSU","naics":"611310","objectid":"30","globalid":"{2EAEE902-71DB-48A3-9EEE-4893F22A7FE3}","id":"8000","naicstitle":"Colleges, Universities, and Professional Schools","iped_id":"122409","address":"5500 Campanile Dr"},"geometry":{"type":"Point","coordinates":[-117.070676096138,32.775901631695]}},{"type":"Feature","properties":{"zip_code":"92058","city":"Oceanside","name_master":"MIRACOSTA COLLEGE","name":"MIRACOSTA COLLEGE-COMMUNITY LEARNING CENTER","state":"CA","shortname":null,"naics":"611210","objectid":"72","globalid":"{0D8BDACF-4052-4BE9-AAEB-B34C31E5C26D}","id":"8124","naicstitle":"Junior Colleges","iped_id":"118912","address":"1831 Mission Avenue"},"geometry":{"type":"Point","coordinates":[-117.36458071445,33.202148265707]}},{"type":"Feature","properties":{"zip_code":"92078","city":"San Marcos","name_master":"PIMA MEDICAL INSTITUTE","name":"PIMA MEDICAL INSTITUTE-SAN MARCOS","state":"CA","shortname":"Pima SM","naics":"611519","objectid":"60","globalid":"{146E2809-4165-4B6A-ACC6-6D59E662C28A}","id":"8069","naicstitle":"Other Technical and Trade Schools","iped_id":"492449","address":"111 Campus Way"},"geometry":{"type":"Point","coordinates":[-117.160085951635,33.136828795207]}},{"type":"Feature","properties":{"zip_code":"92101","city":"San Diego","name_master":"THOMAS JEFFERSON SCHOOL OF LAW","name":"THOMAS JEFFERSON SCHOOL OF LAW","state":"CA","shortname":"Jefferson","naics":"611310","objectid":"35","globalid":"{7B0DF4F5-38B1-469B-9EB6-2F1137C0C184}","id":"8029","naicstitle":"Colleges, Universities, and Professional Schools","iped_id":"126049","address":"701 B Street - Suite 110"},"geometry":{"type":"Point","coordinates":[-117.189480733736,32.746404162775]}},{"type":"Feature","properties":{"zip_code":"92101-4787","city":"San Diego","name_master":"SAN DIEGO CITY COLLEGE","name":"SAN DIEGO CITY COLLEGE","state":"CA","shortname":"City","naics":"611210","objectid":"27","globalid":"{F48D8C53-3F38-42A3-8017-1198E9B8FAB1}","id":"8006","naicstitle":"Junior Colleges","iped_id":"122339","address":"1313 Park Boulevard"},"geometry":{"type":"Point","coordinates":[-117.152194703054,32.719086362033]}},{"type":"Feature","properties":{"zip_code":"92007","city":"Cardiff By Sea,","name_master":"MIRACOSTA COLLEGE","name":"MIRACOSTA COLLEGE-SAN ELIJO","state":"CA","shortname":"MiraCosta","naics":"611210","objectid":"2","globalid":"{69BAFCC5-317B-4030-9CBA-94311C47159B}","id":"8021","naicstitle":"Junior Colleges","iped_id":"118912","address":"3333 Manchester Avenue"},"geometry":{"type":"Point","coordinates":[-117.258785364225,33.017884100148]}},{"type":"Feature","properties":{"zip_code":"91910","city":"Chula Vista","name_master":"PIMA MEDICAL INSTITUTE","name":"PIMA MEDICAL INSTITUTE-CHULA VISTA","state":"CA","shortname":null,"naics":"611519","objectid":"59","globalid":"{4B4BF30F-580C-4F8D-95CE-E636A57DDE61}","id":"8113","naicstitle":"Other Technical and Trade Schools","iped_id":"434140","address":"780 Bay Blvd Suite101"},"geometry":{"type":"Point","coordinates":[-117.093163866377,32.619407735351]}},{"type":"Feature","properties":{"zip_code":"92020","city":"El Cajon","name_master":"ADVANCED TRAINING ASSOCIATES","name":"ADVANCED TRAINING ASSOCIATES","state":"CA","shortname":"Advanced Training","naics":"611519","objectid":"40","globalid":"{B82AF056-73F0-4F1C-B734-722D91EF1EBF}","id":"8050","naicstitle":"Other Technical and Trade Schools","iped_id":"444361","address":"1810 Gillespie Way  Suite 104"},"geometry":{"type":"Point","coordinates":[-116.982022664105,32.818946898368]}},{"type":"Feature","properties":{"zip_code":"92093","city":"La Jolla","name_master":"UNIVERSITY OF CALIFORNIA SAN DIEGO","name":"UNIVERSITY OF CALIFORNIA SAN DIEGO","state":"CA","shortname":"UCSD","naics":"611310","objectid":"8","globalid":"{39B24B71-FD0A-49EC-8347-1A33E6871D74}","id":"8001","naicstitle":"Colleges, Universities, and Professional Schools","iped_id":"110680","address":"9500 Gilman Dr"},"geometry":{"type":"Point","coordinates":[-117.234469689345,32.874895078354]}},{"type":"Feature","properties":{"zip_code":"92027","city":"Escondido","name_master":"WESTMINSTER THEOLOGICAL SEMINARY IN CALIFORNIA","name":"WESTMINSTER THEOLOGICAL SEMINARY IN CALIFORNIA","state":"CA","shortname":"Westminster","naics":"813110","objectid":"34","globalid":"{C26334E7-7984-43B5-98F7-19CD4374B8E5}","id":"8041","naicstitle":"Religious Organizations","iped_id":"125718","address":"1725 Bear Valley Parkway"},"geometry":{"type":"Point","coordinates":[-117.046528764933,33.121382292949]}},{"type":"Feature","properties":{"zip_code":"92108","city":"San Diego","name_master":"CALIFORNIA MIRAMAR UNIVERSITY","name":"CALIFORNIA MIRAMAR UNIVERSITY","state":"CA","shortname":null,"naics":"611310","objectid":"50","globalid":"{EC7760C2-2FEE-4255-8D35-D541E55544A6}","id":"8105","naicstitle":"Colleges, Universities, and Professional Schools","iped_id":"480781","address":"3550 Camino Del Rio North  Suite 208"},"geometry":{"type":"Point","coordinates":[-117.118490892222,32.779426750926]}},{"type":"Feature","properties":{"zip_code":"92056-3899","city":"Oceanside","name_master":"MIRACOSTA COLLEGE","name":"MIRACOSTA COLLEGE-OCEANSIDE","state":"CA","shortname":"MiraCosta","naics":"611210","objectid":"56","globalid":"{420E0B15-2999-45D8-B706-D7538848DBDF}","id":"8012","naicstitle":"Junior Colleges","iped_id":"118912","address":"One Barnard Drive"},"geometry":{"type":"Point","coordinates":[-117.302310951941,33.190935822938]}},{"type":"Feature","properties":{"zip_code":"92145","city":"San Diego","name_master":"NATIONAL UNIVERSITY","name":"NATIONAL UNIVERSITY-MIRAMAR","state":"CA","shortname":"National","naics":"611310","objectid":"21","globalid":"{192BB12F-D291-48B6-AB4A-563EB0C7B255}","id":"8017","naicstitle":"Colleges, Universities, and Professional Schools","iped_id":"119605","address":"MCAS Miramar, Building 5305"},"geometry":{"type":"Point","coordinates":[-117.134156489065,32.885202289529]}},{"type":"Feature","properties":{"zip_code":"91911-3262","city":"Chula Vista","name_master":"UNITED EDUCATION INSTITUTE","name":"UNITED EDUCATION INSTITUTE-CHULA VISTA","state":"CA","shortname":"UEI","naics":"611430","objectid":"33","globalid":"{DC25F8D5-010F-4684-A8D1-FA69E1B7A1B8}","id":"8071","naicstitle":"Professional and Management Development Training","iped_id":"124681","address":"1261 Third Avenue  Suite A"},"geometry":{"type":"Point","coordinates":[-117.080299270064,32.640729113735]}},{"type":"Feature","properties":{"zip_code":"92113-1964","city":"San Diego","name_master":"CONCORDE CAREER COLLEGES","name":"CONCORDE CAREER COLLEGES","state":"CA","shortname":"Concorde","naics":"611519","objectid":"23","globalid":"{697678C7-0C17-44A7-911A-0144ECE14D54}","id":"8057","naicstitle":"Other Technical and Trade Schools","iped_id":"120661","address":"4393 Imperial Avenue  Suite 100"},"geometry":{"type":"Point","coordinates":[-117.102810340894,32.702879923052]}},{"type":"Feature","properties":{"zip_code":"92121","city":"San Diego","name_master":"DESIGN INSTITUTE OF SAN DIEGO","name":"DESIGN INSTITUTE OF SAN DIEGO","state":"CA","shortname":"Design Institute","naics":"611519","objectid":"13","globalid":"{F8F231B4-BE95-4A4C-BA84-8B0B3F53D36B}","id":"8031","naicstitle":"Other Technical and Trade Schools","iped_id":"113582","address":"8555 Commerce Ave"},"geometry":{"type":"Point","coordinates":[-117.167335993561,32.880880549446]}},{"type":"Feature","properties":{"zip_code":"92102","city":"San Diego","name_master":"CET-SAN DIEGO","name":"CET-SAN DIEGO","state":"CA","shortname":"CET","naics":"611519","objectid":"11","globalid":"{8D91A9FE-20A3-41AE-89FD-09BF1CF050C9}","id":"8056","naicstitle":"Other Technical and Trade Schools","iped_id":"111708","address":"4153 Market Street"},"geometry":{"type":"Point","coordinates":[-117.104853957252,32.711258780424]}},{"type":"Feature","properties":{"zip_code":"92081","city":"Vista","name_master":"VISTA ADULT SCHOOL","name":"VISTA ADULT SCHOOL","state":"CA","shortname":null,"naics":"611699","objectid":"71","globalid":"{8F700CC3-E42A-4616-ABF8-5F3EEE8DA06C}","id":"8123","naicstitle":"All Other Miscellaneous Schools and Instruction","iped_id":"492324","address":"510 Sunset Drive"},"geometry":{"type":"Point","coordinates":[-117.240391424635,33.187173997263]}}]
}